adult-child-enjoyment-1312023.jpg,"{""height"":271,""y"":266,""label"":""asta"",""width"":271,""x"":468}","{""height"":271,""y"":365,""label"":""asta"",""width"":271,""x"":295}","{""height"":271,""y"":174,""label"":""perro"",""width"":271,""x"":572}","{""height"":271,""y"":170,""label"":""perro"",""width"":271,""x"":286}","{""height"":271,""y"":117,""label"":""alvaor"",""width"":271,""x"":593}","{""height"":271,""y"":250,""label"":""alvaor"",""width"":271,""x"":446}",
affection-beard-boy-1456951.jpg,"{""height"":1255,""y"":454,""label"":""falda"",""width"":1255,""x"":722}","{""height"":1255,""y"":1311,""label"":""falda"",""width"":1255,""x"":1167}","{""height"":1255,""y"":185,""label"":""perro"",""width"":1255,""x"":472}","{""height"":1255,""y"":1237,""label"":""alvaor"",""width"":1255,""x"":1130}",,,
adult-affection-back-view-1682497.jpg,"{""height"":852,""y"":1106,""label"":""asta"",""width"":852,""x"":1814}","{""height"":852,""y"":588,""label"":""falda"",""width"":852,""x"":1899}","{""height"":852,""y"":267,""label"":""perro"",""width"":852,""x"":1534}","{""height"":852,""y"":314,""label"":""alvaor"",""width"":852,""x"":1412}","{""height"":852,""y"":188,""label"":""alvaor"",""width"":852,""x"":2075}","{""height"":852,""y"":493,""label"":""alvaor"",""width"":852,""x"":2223}","{""height"":852,""y"":710,""label"":""alvaor"",""width"":852,""x"":2188}"
,,,,,,,
,,,,,,,
,,,,,,,
,,,,,,,
,,,,,,,
,,,,,,,
,,,,,,,
,,,,,,,
,,,,,,,
,,,,,,,
,,,,,,,
,,,,,,,
,,,,,,,
,,,,,,,
,,,,,,,
,,,,,,,
,,,,,,,
,,,,,,,
,,,,,,,
,,,,,,,
,,,,,,,
,,,,,,,
,,,,,,,
,,,,,,,
,,,,,,,
,,,,,,,
,,,,,,,
,,,,,,,
,,,,,,,
,,,,,,,
,,,,,,,
,,,,,,,
,,,,,,,
,,,,,,,
,,,,,,,
,,,,,,,
,,,,,,,
,,,,,,,
,,,,,,,
,,,,,,,
,,,,,,,
,,,,,,,
,,,,,,,
,,,,,,,
,,,,,,,
,,,,,,,
,,,,,,,
,,,,,,,
,,,,,,,
,,,,,,,
,,,,,,,
,,,,,,,
,,,,,,,
,,,,,,,
,,,,,,,
,,,,,,,
,,,,,,,
,,,,,,,
,,,,,,,
,,,,,,,
,,,,,,,
,,,,,,,
,,,,,,,
,,,,,,,
,,,,,,,
,,,,,,,
,,,,,,,
,,,,,,,
,,,,,,,
,,,,,,,
,,,,,,,
,,,,,,,
,,,,,,,
,,,,,,,
,,,,,,,
,,,,,,,
,,,,,,,
,,,,,,,
,,,,,,,
,,,,,,,
,,,,,,,
,,,,,,,
,,,,,,,
,,,,,,,
,,,,,,,
,,,,,,,
,,,,,,,
,,,,,,,
,,,,,,,
,,,,,,,
,,,,,,,
,,,,,,,
,,,,,,,
,,,,,,,
,,,,,,,
,,,,,,,
